NORAD_CAT_ID,OBJECT_NAME,OBJECT_TYPE,EPOCH,MEAN_MOTION,ECCENTRICITY,INCLINATION,RA_OF_ASC_NODE,ARG_OF_PERICENTER,MEAN_ANOMALY,BSTAR,MEAN_MOTION_DOT,MEAN_MOTION_DDOT,TLE_LINE0,TLE_LINE1,TLE_LINE2,SEMIMAJOR_AXIS,PERIOD,APOGEE,PERIGEE,DECAYED
55964.0,STARLINK-5895,PAYLOAD,2024-08-18 06:08:57,14.96726176,0.0003079,69.9981,256.9727,268.3938,91.6868,3.8327e-05,3.47e-06,0.0,0 STARLINK-5895,1 55964U 23037BC  24231.25622136  .00000347  00000-0  38327-4 0  9994,2 55964  69.9981 256.9727 0003079 268.3938  91.6868 14.96726176 79349,6955.157,96.21,579.164,574.881,0.0
55964.0,STARLINK-5895,PAYLOAD,2024-08-18 12:33:54,14.96727319,0.0002986,69.9984,256.3005,266.6315,93.4501,4.8485e-05,4.64e-06,0.0,0 STARLINK-5895,1 55964U 23037BC  24231.52354601  .00000464  00000-0  48485-4 0  9999,2 55964  69.9984 256.3005 0002986 266.6315  93.4501 14.96727319 79389,6955.153,96.21,579.095,574.942,0.0
55964.0,STARLINK-5895,PAYLOAD,2024-08-19 04:36:17,14.96719356,0.0002734,69.999,254.6201,260.4863,99.5986,-9.2773e-05,-1.153e-05,0.0,0 STARLINK-5895,1 55964U 23037BC  24232.19187062 -.00001153  00000-0 -92773-4 0  9995,2 55964  69.9990 254.6201 0002734 260.4863  99.5986 14.96719356 79821,6955.178,96.21,578.945,575.142,0.0
55964.0,STARLINK-5895,PAYLOAD,2024-08-19 09:25:00,14.96717343,0.0002865,69.9986,254.115,267.1676,92.9154,-0.00012154,-1.482e-05,0.0,0 STARLINK-5895,1 55964U 23037BC  24232.39236837 -.00001482  00000-0 -12154-3 0  9991,2 55964  69.9986 254.1150 0002865 267.1676  92.9154 14.96717343 79519,6955.184,96.211,579.042,575.057,0.0
55964.0,STARLINK-5895,PAYLOAD,2024-08-20 04:39:51,14.96720702,0.0002916,69.9983,252.0974,267.0855,92.997,-4.8911e-05,-6.51e-06,0.0,0 STARLINK-5895,1 55964U 23037BC  24233.19434514 -.00000651  00000-0 -48911-4 0  9990,2 55964  69.9983 252.0974 0002916 267.0855  92.9970 14.96720702 79971,6955.174,96.21,579.067,575.011,0.0
55964.0,STARLINK-5895,PAYLOAD,2024-08-20 11:04:48,14.9672134,0.000292,69.9987,251.4256,268.2267,91.8557,-3.4509e-05,-4.87e-06,0.0,0 STARLINK-5895,1 55964U 23037BC  24233.46167151 -.00000487  00000-0 -34509-4 0  9995,2 55964  69.9987 251.4256 0002920 268.2267  91.8557 14.96721340 79671,6955.172,96.21,579.068,575.006,0.0
55964.0,STARLINK-5895,PAYLOAD,2024-08-21 04:43:25,14.96710883,0.000301,69.9985,249.5762,268.9083,91.173,2.5033e-06,-6.3e-07,0.0,0 STARLINK-5895,1 55964U 23037BC  24234.19682796 -.00000063  00000-0  25033-5 0  9995,2 55964  69.9985 249.5762 0003010 268.9083  91.1730 14.96710883 80121,6955.204,96.211,579.163,574.976,0.0
55964.0,STARLINK-5895,PAYLOAD,2024-08-21 11:08:22,14.96713336,0.0003051,69.9985,248.9037,269.502,90.5789,2.3766e-05,1.8e-06,0.0,0 STARLINK-5895,1 55964U 23037BC  24234.46415427  .00000180  00000-0  23766-4 0  9999,2 55964  69.9985 248.9037 0003051 269.5020  90.5789 14.96713336 79820,6955.197,96.211,579.184,574.94,0.0
